0 COSMOS 2342
1 24800U 97022A   13279.03881189  .00000635  00000-0  00000+0 0  2068
2 24800 066.7665 021.8798 6820188 202.3856 143.3410 01.99538602119860
0 COSMOS 2342
1 24800U 97022A   13281.51928851  .00000759  00000-0  00000+0 0  2070
2 24800 066.7662 021.6460 6820344 202.3315 125.1491 01.99542370119915
0 COSMOS 2342
1 24800U 97022A   13282.96554087  .00000790  00000-0  00000+0 0    13
2 24800 066.7655 021.5102 6820454 202.2995 084.0597 01.99544983119949
0 COSMOS 2342
1 24800U 97022A   13283.49165324  .00000092  00000-0  10000-3 0  2094
2 24800 066.8314 021.5318 6820308 202.2514 101.9968 01.99542680119950
0 COSMOS 2342
1 24800U 97022A   13283.57321237  .00000793  00000-0  00000+0 0  2082
2 24800 066.7652 021.4528 6820495 202.2861 160.5825 01.99546133119958
0 COSMOS 2342
1 24800U 97022A   13288.00219826  .00000709  00000-0  00000+0 0  2093
2 24800 066.7593 021.0383 6820564 202.1925 102.2276 01.99552905120043
0 COSMOS 2342
1 24800U 97022A   13288.49448132  .00000703  00000-0  00000+0 0  2106
2 24800 066.7645 020.9900 6820903 202.1768 095.8961 01.99555690120059
0 COSMOS 2342
1 24800U 97022A   13290.50802348  .00000041  00000-0  10000-3 0  2126
2 24800 066.8533 020.8786 6820827 202.0935 102.4212 01.99557478120091
0 COSMOS 2342
1 24800U 97022A   13290.71892406  .00000705  00000-0  00000+0 0  2114
2 24800 066.7640 020.7810 6821123 202.1274 253.9413 01.99560171120092
0 COSMOS 2342
1 24800U 97022A   13292.50489916  .00000721  00000-0  00000+0 0    16
2 24800 066.7632 020.6132 6821226 202.0878 097.0184 01.99563610120130
